0 KMS 3-2
1 39026U 12072A   13281.91393498  .00003500  00000-0  20743-3 0  8821
2 39026 097.3655 325.9292 0055571 217.0795 142.6589 15.10722450 45408
0 KMS 3-2
1 39026U 12072A   13283.23864936  .00003440  00000-0  20388-3 0  8837
2 39026 097.3654 327.2040 0055683 212.4189 147.3616 15.10731348 45604
0 KMS 3-2
1 39026U 12072A   13284.56335381  .00003663  00000-0  21675-3 0  8849
2 39026 097.3651 328.4792 0055707 207.7400 152.0857 15.10742173 45808
0 KMS 3-2
1 39026U 12072A   13285.88805176  .00003507  00000-0  20756-3 0  8856
2 39026 097.3651 329.7536 0055847 203.1826 156.6883 15.10751069 46001
0 KMS 3-2
1 39026U 12072A   13287.21274124  .00003561  00000-0  21065-3 0  8863
2 39026 097.3637 331.0286 0055943 198.5709 161.3480 15.10760873 46208
0 KMS 3-2
1 39026U 12072A   13288.53742104  .00003712  00000-0  21930-3 0  8877
2 39026 097.3643 332.3038 0055992 194.0044 165.9653 15.10771712 46409
0 KMS 3-2
1 39026U 12072A   13289.53091870  .00004270  00000-0  25154-3 0  8888
2 39026 097.3650 333.2615 0056128 190.2933 169.7167 15.10783668 46556
0 KMS 3-2
1 39026U 12072A   13290.39194186  .00004973  00000-0  29217-3 0  8893
2 39026 097.3647 334.0891 0056175 187.2914 172.7527 15.10797929 46687
0 KMS 3-2
1 39026U 12072A   13291.51788545  .00005552  00000-0  32546-3 0  8901
2 39026 097.3651 335.1743 0056439 183.2283 176.8622 15.10814133 46855
0 KMS 3-2
1 39026U 12072A   13292.57758610  .00006007  00000-0  35157-3 0  8916
2 39026 097.3654 336.1955 0056586 179.5349 180.5945 15.10829629 47013
0 KMS 3-2
1 39026U 12072A   13293.90220134  .00006255  00000-0  36566-3 0  8920
2 39026 097.3643 337.4690 0056710 174.9672 185.2142 15.10847809 47211
0 KMS 3-2
1 39026U 12072A   13295.22680417  .00006196  00000-0  36206-3 0  8937
2 39026 097.3635 338.7434 0056766 170.4347 189.7978 15.10864177 47418
